{"type": "FeatureCollection", "features": [ {"type": "Feature", "properties": {"norad_id": 36200, "name": "FENGYUN 1C DEB", "group": "fengyun-1c-debris", "lat": -76.52909306795753, "lon": -160.23689572231717, "alt_km": 708.1824945606186, "timestamp": "2025-12-15T04:01:20.739590+00:00", "meta": {"OBJECT_NAME": "FENGYUN 1C DEB", "OBJECT_ID": "1999-025DTZ", "EPOCH": "2025-12-14T03:47:05.989344", "MEAN_MOTION": 14.58756817, "ECCENTRICITY": 0.00334694, "INCLINATION": 99.3863, "RA_OF_ASC_NODE": 62.296, "ARG_OF_PERICENTER": 2.8388, "MEAN_ANOMALY": 357.2991, "EPHEMERIS_TYPE": 0, "CLASSIFICATION_TYPE": "U", "NORAD_CAT_ID": 36200, "ELEMENT_SET_NO": 999, "REV_AT_EPOCH": 73381, "BSTAR": 0.0042903483, "MEAN_MOTION_DOT": 0.00020193, "MEAN_MOTION_DDOT": 0}, "tle": {"line1": "1 36200U 99025DTZ 25348.15770821  .00020193  00000+0  42903-2 0  9993", "line2": "2 36200  99.3863  62.2960 0033469   2.8388 357.2991 14.58756817733810"}}, "geometry": {"type": "Point", "coordinates": [-160.23689572231717, -76.52909306795753]}}, {"type": "Feature", "properties": {"norad_id": 36203, "name": "FENGYUN 1C DEB", "group": "fengyun-1c-debris", "lat": 41.70033030075149, "lon": -74.95073378361323, "alt_km": 638.9230395106924, "timestamp": "2025-12-15T04:01:20.739600+00:00", "meta": {"OBJECT_NAME": "FENGYUN 1C DEB", "OBJECT_ID": "1999-025DUC", "EPOCH": "2025-12-12T14:06:24.050304", "MEAN_MOTION": 14.78408417, "ECCENTRICITY": 0.00835001, "INCLINATION": 99.0957, "RA_OF_ASC_NODE": 290.3437, "ARG_OF_PERICENTER": 148.9986, "MEAN_ANOMALY": 211.6188, "EPHEMERIS_TYPE": 0, "CLASSIFICATION_TYPE": "U", "NORAD_CAT_ID": 36203, "ELEMENT_SET_NO": 999, "REV_AT_EPOCH": 63427, "BSTAR": 0.0017430334, "MEAN_MOTION_DOT": 0.00013417, "MEAN_MOTION_DDOT": 0}, "tle": {"line1": "1 36203U 99025DUC 25346.58777836  .00013417  00000+0  17430-2 0  9992", "line2": "2 36203  99.0957 290.3437 0083500 148.9986 211.6188 14.78408417634277"}}, "geometry": {"type": "Point", "coordinates": [-74.95073378361323, 41.70033030075149]}}, {"type": "Feature", "properties": {"norad_id": 36204, "name": "FENGYUN 1C DEB", "group": "fengyun-1c-debris", "lat": 26.789216225928456, "lon": -88.83120707649483, "alt_km": 760.9786593919807, "timestamp": "2025-12-15T04:01:20.739610+00:00", "meta": {"OBJECT_NAME": "FENGYUN 1C DEB", "OBJECT_ID": "1999-025DUD", "EPOCH": "2025-12-13T12:48:50.013216", "MEAN_MOTION": 14.34589399, "ECCENTRICITY": 0.00200312, "INCLINATION": 99.2908, "RA_OF_ASC_NODE": 84.6725, "ARG_OF_PERICENTER": 160.7561, "MEAN_ANOMALY": 199.4382, "EPHEMERIS_TYPE": 0, "CLASSIFICATION_TYPE": "U", "NORAD_CAT_ID": 36204, "ELEMENT_SET_NO": 999, "REV_AT_EPOCH": 94439, "BSTAR": 0.0020446238, "MEAN_MOTION_DOT": 5.743e-05, "MEAN_MOTION_DDOT": 0}, "tle": {"line1": "1 36204U 99025DUD 25347.53391219  .00005743  00000+0  20446-2 0  9990", "line2": "2 36204  99.2908  84.6725 0020031 160.7561 199.4382 14.34589399944398"}}, "geometry": {"type": "Point", "coordinates": [-88.83120707649483, 26.789216225928456]}}, {"type": "Feature", "properties": {"norad_id": 36206, "name": "FENGYUN 1C DEB", "group": "fengyun-1c-debris", "lat": 53.72524648893667, "lon": 0.4959316940060075, "alt_km": 798.6555467868693, "timestamp": "2025-12-15T04:01:20.739620+00:00", "meta": {"OBJECT_NAME": "FENGYUN 1C DEB", "OBJECT_ID": "1999-025DUF", "EPOCH": "2025-12-12T08:11:58.521984", "MEAN_MOTION": 14.21580365, "ECCENTRICITY": 0.00304293, "INCLINATION": 98.4792, "RA_OF_ASC_NODE": 9.509, "ARG_OF_PERICENTER": 20.5451, "MEAN_ANOMALY": 339.6943, "EPHEMERIS_TYPE": 0, "CLASSIFICATION_TYPE": "U", "NORAD_CAT_ID": 36206, "ELEMENT_SET_NO": 999, "REV_AT_EPOCH": 64415, "BSTAR": 0.00096057028, "MEAN_MOTION_DOT": 2.074e-05, "MEAN_MOTION_DDOT": 0}, "tle": {"line1": "1 36206U 99025DUF 25346.34164956  .00002074  00000+0  96057-3 0  9992", "line2": "2 36206  98.4792   9.5090 0030429  20.5451 339.6943 14.21580365644158"}}, "geometry": {"type": "Point", "coordinates": [0.4959316940060075, 53.72524648893667]}}, {"type": "Feature", "properties": {"norad_id": 36211, "name": "FENGYUN 1C DEB", "group": "fengyun-1c-debris", "lat": -52.64192631377339, "lon": 150.9602072131203, "alt_km": 624.3258241683716, "timestamp": "2025-12-15T04:01:20.739630+00:00", "meta": {"OBJECT_NAME": "FENGYUN 1C DEB", "OBJECT_ID": "1999-025DUL", "EPOCH": "2025-12-12T05:52:45.045984", "MEAN_MOTION": 14.2599064, "ECCENTRICITY": 0.02665534, "INCLINATION": 98.5055, "RA_OF_ASC_NODE": 339.424, "ARG_OF_PERICENTER": 230.3031, "MEAN_ANOMALY": 127.4375, "EPHEMERIS_TYPE": 0, "CLASSIFICATION_TYPE": "U", "NORAD_CAT_ID": 36211, "ELEMENT_SET_NO": 999, "REV_AT_EPOCH": 94362, "BSTAR": 0.00079042228, "MEAN_MOTION_DOT": 2.691e-05, "MEAN_MOTION_DDOT": 0}, "tle": {"line1": "1 36211U 99025DUL 25346.24496581  .00002691  00000+0  79042-3 0  9999", "line2": "2 36211  98.5055 339.4240 0266553 230.3031 127.4375 14.25990640943624"}}, "geometry": {"type": "Point", "coordinates": [150.9602072131203, -52.64192631377339]}}, {"type": "Feature", "properties": {"norad_id": 36216, "name": "FENGYUN 1C DEB", "group": "fengyun-1c-debris", "lat": -1.642997957349568, "lon": -170.94423601293792, "alt_km": 864.446918552936, "timestamp": "2025-12-15T04:01:20.739641+00:00", "meta": {"OBJECT_NAME": "FENGYUN 1C DEB", "OBJECT_ID": "1999-025DUR", "EPOCH": "2025-12-09T18:32:38.416704", "MEAN_MOTION": 14.18849305, "ECCENTRICITY": 0.00451569, "INCLINATION": 98.6092, "RA_OF_ASC_NODE": 4.0664, "ARG_OF_PERICENTER": 26.4592, "MEAN_ANOMALY": 333.8876, "EPHEMERIS_TYPE": 0, "CLASSIFICATION_TYPE": "U", "NORAD_CAT_ID": 36216, "ELEMENT_SET_NO": 999, "REV_AT_EPOCH": 64330, "BSTAR": 0.00051766748, "MEAN_MOTION_DOT": 1.046e-05, "MEAN_MOTION_DDOT": 0}, "tle": {"line1": "1 36216U 99025DUR 25343.77266686  .00001046  00000+0  51767-3 0  9997", "line2": "2 36216  98.6092   4.0664 0045156  26.4592 333.8876 14.18849305643300"}}, "geometry": {"type": "Point", "coordinates": [-170.94423601293792, -1.642997957349568]}}, {"type": "Feature", "properties": {"norad_id": 36218, "name": "FENGYUN 1C DEB", "group": "fengyun-1c-debris", "lat": 1.155653477958386, "lon": 10.633871668279895, "alt_km": 677.3064418317281, "timestamp": "2025-12-15T04:01:20.739651+00:00", "meta": {"OBJECT_NAME": "FENGYUN 1C DEB", "OBJECT_ID": "1999-025DUT", "EPOCH": "2025-12-12T19:42:04.442400", "MEAN_MOTION": 14.70989932, "ECCENTRICITY": 0.0072811, "INCLINATION": 99.0771, "RA_OF_ASC_NODE": 187.8366, "ARG_OF_PERICENTER": 295.4261, "MEAN_ANOMALY": 63.9419, "EPHEMERIS_TYPE": 0, "CLASSIFICATION_TYPE": "U", "NORAD_CAT_ID": 36218, "ELEMENT_SET_NO": 999, "REV_AT_EPOCH": 59144, "BSTAR": 0.0015985689, "MEAN_MOTION_DOT": 0.00010165, "MEAN_MOTION_DDOT": 0}, "tle": {"line1": "1 36218U 99025DUT 25346.82088475  .00010165  00000+0  15986-2 0  9990", "line2": "2 36218  99.0771 187.8366 0072811 295.4261  63.9419 14.70989932591449"}}, "geometry": {"type": "Point", "coordinates": [10.633871668279895, 1.155653477958386]}}, {"type": "Feature", "properties": {"norad_id": 36224, "name": "FENGYUN 1C DEB", "group": "fengyun-1c-debris", "lat": 4.606792674255425, "lon": 35.74360515588305, "alt_km": 774.1502233876672, "timestamp": "2025-12-15T04:01:20.739661+00:00", "meta": {"OBJECT_NAME": "FENGYUN 1C DEB", "OBJECT_ID": "1999-025DUZ", "EPOCH": "2025-12-13T21:24:20.950560", "MEAN_MOTION": 14.12763024, "ECCENTRICITY": 0.01145202, "INCLINATION": 98.7802, "RA_OF_ASC_NODE": 35.2064, "ARG_OF_PERICENTER": 348.72, "MEAN_ANOMALY": 11.1408, "EPHEMERIS_TYPE": 0, "CLASSIFICATION_TYPE": "U", "NORAD_CAT_ID": 36224, "ELEMENT_SET_NO": 999, "REV_AT_EPOCH": 64448, "BSTAR": 0.0001447508, "MEAN_MOTION_DOT": 2.42e-06, "MEAN_MOTION_DDOT": 0}, "tle": {"line1": "1 36224U 99025DUZ 25347.89190915  .00000242  00000+0  14475-3 0  9996", "line2": "2 36224  98.7802  35.2064 0114520 348.7200  11.1408 14.12763024644481"}}, "geometry": {"type": "Point", "coordinates": [35.74360515588305, 4.606792674255425]}}, {"type": "Feature", "properties": {"norad_id": 36225, "name": "FENGYUN 1C DEB", "group": "fengyun-1c-debris", "lat": -40.081478194353046, "lon": -76.5904802577444, "alt_km": 540.1303342151778, "timestamp": "2025-12-15T04:01:20.739671+00:00", "meta": {"OBJECT_NAME": "FENGYUN 1C DEB", "OBJECT_ID": "1999-025DVA", "EPOCH": "2025-12-11T03:22:25.516704", "MEAN_MOTION": 15.05886228, "ECCENTRICITY": 0.00436396, "INCLINATION": 98.8181, "RA_OF_ASC_NODE": 106.3139, "ARG_OF_PERICENTER": 296.8088, "MEAN_ANOMALY": 62.8675, "EPHEMERIS_TYPE": 0, "CLASSIFICATION_TYPE": "U", "NORAD_CAT_ID": 36225, "ELEMENT_SET_NO": 999, "REV_AT_EPOCH": 66748, "BSTAR": 0.0037986718, "MEAN_MOTION_DOT": 0.00056719, "MEAN_MOTION_DDOT": 0}, "tle": {"line1": "1 36225U 99025DVA 25345.14057311  .00056719  00000+0  37987-2 0  9997", "line2": "2 36225  98.8181 106.3139 0043639 296.8088  62.8675 15.05886228667484"}}, "geometry": {"type": "Point", "coordinates": [-76.5904802577444, -40.081478194353046]}}, {"type": "Feature", "properties": {"norad_id": 36226, "name": "FENGYUN 1C DEB", "group": "fengyun-1c-debris", "lat": 41.847301749725474, "lon": -140.63112853206317, "alt_km": 892.6413237705847, "timestamp": "2025-12-15T04:01:20.739681+00:00", "meta": {"OBJECT_NAME": "FENGYUN 1C DEB", "OBJECT_ID": "1999-025DVB", "EPOCH": "2025-12-05T08:24:08.459424", "MEAN_MOTION": 14.10238341, "ECCENTRICITY": 0.00958599, "INCLINATION": 98.6088, "RA_OF_ASC_NODE": 22.1717, "ARG_OF_PERICENTER": 41.8631, "MEAN_ANOMALY": 318.982, "EPHEMERIS_TYPE": 0, "CLASSIFICATION_TYPE": "U", "NORAD_CAT_ID": 36226, "ELEMENT_SET_NO": 999, "REV_AT_EPOCH": 63658, "BSTAR": 0.0024391454, "MEAN_MOTION_DOT": 4.471e-05, "MEAN_MOTION_DDOT": 0}, "tle": {"line1": "1 36226U 99025DVB 25339.35009791  .00004471  00000+0  24391-2 0  9996", "line2": "2 36226  98.6088  22.1717 0095859  41.8631 318.9820 14.10238341636585"}}, "geometry": {"type": "Point", "coordinates": [-140.63112853206317, 41.847301749725474]}}]}